start=new Date('2023-02-19T00:00:00.000Z').valueOf();
sats=[{"PERIAPSIS":"546.407","MEAN_MOTION":"15.06408889","MEAN_MOTION_DOT":"0.00015540","RA_OF_ASC_NODE":"17.2525","EPHEMERIS_TYPE":"0","PERIOD":"95.592","ELEMENT_SET_NO":"999","TLE_LINE1":"1 47639U 21012V   23049.64521014  .00015540  00000-0  10596-2 0  9994","OBJECT_TYPE":"PAYLOAD","FILE":"3807248","RCS_SIZE":"LARGE","INCLINATION":"53.0531","APOAPSIS":"547.965","OBJECT_NAME":"STARLINK-2016","MEAN_MOTION_DDOT":"0.0000000000000","ARG_OF_PERICENTER":"104.9369","TIME_SYSTEM":"UTC","REF_FRAME":"TEME","COUNTRY_CODE":"US","SITE":"AFETR","SEMIMAJOR_AXIS":"6925.321","OBJECT_ID":"2021-012V","TLE_LINE2":"2 47639  53.0531  17.2525 0001125 104.9369 255.1744 15.06408889111685","NORAD_CAT_ID":"47639","LAUNCH_DATE":"2021-02-16","DECAY_DATE":null,"ECCENTRICITY":"0.00011250","EPOCH":"2023-02-18T15:29:06.156096","GP_ID":"225930150","BSTAR":"0.00105960000000","MEAN_ANOMALY":"255.1744","CLASSIFICATION_TYPE":"U","REV_AT_EPOCH":"11168","CENTER_NAME":"EARTH","MEAN_ELEMENT_THEORY":"SGP4"},{"EPOCH":"2023-02-18T10:34:31.645920","ECCENTRICITY":"0.00012260","DECAY_DATE":null,"GP_ID":"225922606","BSTAR":"0.00150600000000","MEAN_ANOMALY":"272.4352","REV_AT_EPOCH":"11189","CENTER_NAME":"EARTH","CLASSIFICATION_TYPE":"U","MEAN_ELEMENT_THEORY":"SGP4","SITE":"AFETR","COUNTRY_CODE":"US","SEMIMAJOR_AXIS":"6925.322","OBJECT_ID":"2021-012W","TLE_LINE2":"2 47640  53.0548  38.1682 0001226  87.6777 272.4352 15.06408677111898","NORAD_CAT_ID":"47640","LAUNCH_DATE":"2021-02-16","FILE":"3807124","RCS_SIZE":"LARGE","INCLINATION":"53.0548","APOAPSIS":"548.036","ARG_OF_PERICENTER":"87.6777","MEAN_MOTION_DDOT":"0.0000000000000","OBJECT_NAME":"STARLINK-2018","REF_FRAME":"TEME","TIME_SYSTEM":"UTC","MEAN_MOTION_DOT":"0.00022227","PERIAPSIS":"546.338","MEAN_MOTION":"15.06408677","RA_OF_ASC_NODE":"38.1682","PERIOD":"95.592","EPHEMERIS_TYPE":"0","OBJECT_TYPE":"PAYLOAD","TLE_LINE1":"1 47640U 21012W   23049.44064405  .00022227  00000-0  15060-2 0  9991","ELEMENT_SET_NO":"999"},{"COUNTRY_CODE":"US","SITE":"AFETR","SEMIMAJOR_AXIS":"6925.379","OBJECT_ID":"2021-012X","NORAD_CAT_ID":"47641","TLE_LINE2":"2 47641  53.0545 305.1961 0001320 104.8199 255.2936 15.06390049112631","LAUNCH_DATE":"2021-02-16","ECCENTRICITY":"0.00013200","EPOCH":"2023-02-17T23:41:00.655296","DECAY_DATE":null,"GP_ID":"225932162","MEAN_ANOMALY":"255.2936","BSTAR":"0.00015678000000","REV_AT_EPOCH":"11263","CENTER_NAME":"EARTH","CLASSIFICATION_TYPE":"U","MEAN_ELEMENT_THEORY":"SGP4","MEAN_MOTION_DOT":"0.00002054","PERIAPSIS":"546.330","MEAN_MOTION":"15.06390049","RA_OF_ASC_NODE":"305.1961","PERIOD":"95.593","EPHEMERIS_TYPE":"0","OBJECT_TYPE":"PAYLOAD","ELEMENT_SET_NO":"999","TLE_LINE1":"1 47641U 21012X   23048.98681314  .00002054  00000-0  15678-3 0  9996","FILE":"3807324","RCS_SIZE":"LARGE","INCLINATION":"53.0545","APOAPSIS":"548.158","MEAN_MOTION_DDOT":"0.0000000000000","ARG_OF_PERICENTER":"104.8199","OBJECT_NAME":"STARLINK-2019","REF_FRAME":"TEME","TIME_SYSTEM":"UTC"},{"TLE_LINE1":"1 47642U 21012Y   23049.64567676  .00016354  00000-0  11141-2 0  9993","ELEMENT_SET_NO":"999","OBJECT_TYPE":"PAYLOAD","EPHEMERIS_TYPE":"0","PERIOD":"95.592","RA_OF_ASC_NODE":"32.2422","PERIAPSIS":"545.891","MEAN_MOTION":"15.06405358","MEAN_MOTION_DOT":"0.00016354","REF_FRAME":"TEME","TIME_SYSTEM":"UTC","ARG_OF_PERICENTER":"91.0880","MEAN_MOTION_DDOT":"0.0000000000000","OBJECT_NAME":"STARLINK-2020","APOAPSIS":"548.503","INCLINATION":"53.0572","RCS_SIZE":"LARGE","FILE":"3807249","LAUNCH_DATE":"2021-02-16","TLE_LINE2":"2 47642  53.0572  32.2422 0001886  91.0880 269.0325 15.06405358111479","NORAD_CAT_ID":"47642","OBJECT_ID":"2021-012Y","SEMIMAJOR_AXIS":"6925.332","SITE":"AFETR","COUNTRY_CODE":"US","MEAN_ELEMENT_THEORY":"SGP4","CLASSIFICATION_TYPE":"U","CENTER_NAME":"EARTH","REV_AT_EPOCH":"11147","GP_ID":"225930164","BSTAR":"0.00111410000000","MEAN_ANOMALY":"269.0325","DECAY_DATE":null,"ECCENTRICITY":"0.00018860","EPOCH":"2023-02-18T15:29:46.472064"},{"FILE":"3807124","RCS_SIZE":"LARGE","INCLINATION":"53.0544","APOAPSIS":"548.126","OBJECT_NAME":"STARLINK-2022","MEAN_MOTION_DDOT":"0.0000000000000","ARG_OF_PERICENTER":"90.2513","TIME_SYSTEM":"UTC","REF_FRAME":"TEME","MEAN_MOTION_DOT":"-0.00000429","MEAN_MOTION":"15.06395960","PERIAPSIS":"546.326","RA_OF_ASC_NODE":"18.6675","PERIOD":"95.592","EPHEMERIS_TYPE":"0","OBJECT_TYPE":"PAYLOAD","TLE_LINE1":"1 47643U 21012Z   23049.32822006 -.00000429  00000-0 -99024-5 0  9997","ELEMENT_SET_NO":"999","ECCENTRICITY":"0.00012990","EPOCH":"2023-02-18T07:52:38.213184","DECAY_DATE":null,"GP_ID":"225921853","MEAN_ANOMALY":"269.8625","BSTAR":"-0.00000990240000","CENTER_NAME":"EARTH","REV_AT_EPOCH":"11215","CLASSIFICATION_TYPE":"U","MEAN_ELEMENT_THEORY":"SGP4","COUNTRY_CODE":"US","SITE":"AFETR","SEMIMAJOR_AXIS":"6925.361","OBJECT_ID":"2021-012Z","LAUNCH_DATE":"2021-02-16","TLE_LINE2":"2 47643  53.0544  18.6675 0001299  90.2513 269.8625 15.06395960112153","NORAD_CAT_ID":"47643"},{"APOAPSIS":"548.048","MEAN_MOTION_DDOT":"0.0000000000000","ARG_OF_PERICENTER":"95.1857","OBJECT_NAME":"STARLINK-2026","TIME_SYSTEM":"UTC","REF_FRAME":"TEME","FILE":"3807251","RCS_SIZE":"LARGE","INCLINATION":"53.0563","RA_OF_ASC_NODE":"37.1260","EPHEMERIS_TYPE":"0","PERIOD":"95.591","TLE_LINE1":"1 47644U 21012AA  23049.67284138 -.00000491  00000-0 -14079-4 0  9999","ELEMENT_SET_NO":"999","OBJECT_TYPE":"PAYLOAD","PERIAPSIS":"546.287","MEAN_MOTION":"15.06415001","MEAN_MOTION_DOT":"-0.00000491","CLASSIFICATION_TYPE":"U","REV_AT_EPOCH":"11141","CENTER_NAME":"EARTH","MEAN_ELEMENT_THEORY":"SGP4","DECAY_DATE":null,"EPOCH":"2023-02-18T16:08:53.495232","ECCENTRICITY":"0.00012720","GP_ID":"225930197","MEAN_ANOMALY":"264.9277","BSTAR":"-0.00001407900000","OBJECT_ID":"2021-012AA","TLE_LINE2":"2 47644  53.0563  37.1260 0001272  95.1857 264.9277 15.06415001111413","NORAD_CAT_ID":"47644","LAUNCH_DATE":"2021-02-16","SITE":"AFETR","COUNTRY_CODE":"US","SEMIMAJOR_AXIS":"6925.303"},{"REV_AT_EPOCH":"11226","CENTER_NAME":"EARTH","CLASSIFICATION_TYPE":"U","MEAN_ELEMENT_THEORY":"SGP4","EPOCH":"2023-02-18T07:06:15.046272","ECCENTRICITY":"0.00015490","DECAY_DATE":null,"MEAN_ANOMALY":"267.7123","GP_ID":"225923338","BSTAR":"0.00150160000000","OBJECT_ID":"2021-012AB","NORAD_CAT_ID":"47645","TLE_LINE2":"2 47645  53.0539   9.0618 0001549  92.4043 267.7123 15.06393767112265","LAUNCH_DATE":"2021-02-16","SITE":"AFETR","COUNTRY_CODE":"US","SEMIMAJOR_AXIS":"6925.368","APOAPSIS":"548.305","OBJECT_NAME":"STARLINK-2027","MEAN_MOTION_DDOT":"0.0000000000000","ARG_OF_PERICENTER":"92.4043","TIME_SYSTEM":"UTC","REF_FRAME":"TEME","FILE":"3807124","RCS_SIZE":"LARGE","INCLINATION":"53.0539","RA_OF_ASC_NODE":"9.0618","PERIOD":"95.593","EPHEMERIS_TYPE":"0","OBJECT_TYPE":"PAYLOAD","ELEMENT_SET_NO":"999","TLE_LINE1":"1 47645U 21012AB  23049.29600748  .00022152  00000-0  15016-2 0  9993","MEAN_MOTION_DOT":"0.00022152","PERIAPSIS":"546.160","MEAN_MOTION":"15.06393767"},{"SEMIMAJOR_AXIS":"6925.316","COUNTRY_CODE":"US","SITE":"AFETR","NORAD_CAT_ID":"47646","TLE_LINE2":"2 47646  53.0552 333.2256 0000965  88.8174 271.2926 15.06410575112781","LAUNCH_DATE":"2021-02-16","OBJECT_ID":"2021-012AC","GP_ID":"225922101","BSTAR":"0.00039877000000","MEAN_ANOMALY":"271.2926","ECCENTRICITY":"0.00009650","EPOCH":"2023-02-18T11:33:35.655552","DECAY_DATE":null,"MEAN_ELEMENT_THEORY":"SGP4","CENTER_NAME":"EARTH","REV_AT_EPOCH":"11278","CLASSIFICATION_TYPE":"U","MEAN_MOTION_DOT":"0.00005665","PERIAPSIS":"546.513","MEAN_MOTION":"15.06410575","OBJECT_TYPE":"PAYLOAD","TLE_LINE1":"1 47646U 21012AC  23049.48166268  .00005665  00000-0  39877-3 0  9991","ELEMENT_SET_NO":"999","PERIOD":"95.591","EPHEMERIS_TYPE":"0","RA_OF_ASC_NODE":"333.2256","INCLINATION":"53.0552","RCS_SIZE":"LARGE","FILE":"3807124","REF_FRAME":"TEME","TIME_SYSTEM":"UTC","OBJECT_NAME":"STARLINK-2028","MEAN_MOTION_DDOT":"0.0000000000000","ARG_OF_PERICENTER":"88.8174","APOAPSIS":"547.849"},{"MEAN_ELEMENT_THEORY":"SGP4","CENTER_NAME":"EARTH","REV_AT_EPOCH":"11188","CLASSIFICATION_TYPE":"U","GP_ID":"225922348","BSTAR":"0.00076963000000","MEAN_ANOMALY":"271.0752","EPOCH":"2023-02-18T08:27:08.411616","ECCENTRICITY":"0.00014180","DECAY_DATE":null,"TLE_LINE2":"2 47647  53.0520  38.5607 0001418  89.0399 271.0752 15.06398861111886","NORAD_CAT_ID":"47647","LAUNCH_DATE":"2021-02-16","OBJECT_ID":"2021-012AD","SEMIMAJOR_AXIS":"6925.352","COUNTRY_CODE":"US","SITE":"AFETR","REF_FRAME":"TEME","TIME_SYSTEM":"UTC","OBJECT_NAME":"STARLINK-2030","MEAN_MOTION_DDOT":"0.0000000000000","ARG_OF_PERICENTER":"89.0399","APOAPSIS":"548.199","INCLINATION":"53.0520","RCS_SIZE":"LARGE","FILE":"3807124","OBJECT_TYPE":"PAYLOAD","TLE_LINE1":"1 47647U 21012AD  23049.35218069  .00011200  00000-0  76963-3 0  9994","ELEMENT_SET_NO":"999","PERIOD":"95.592","EPHEMERIS_TYPE":"0","RA_OF_ASC_NODE":"38.5607","MEAN_MOTION_DOT":"0.00011200","PERIAPSIS":"546.235","MEAN_MOTION":"15.06398861"},{"FILE":"3807124","RCS_SIZE":"MEDIUM","INCLINATION":"53.0541","APOAPSIS":"548.001","MEAN_MOTION_DDOT":"0.0000000000000","ARG_OF_PERICENTER":"100.5707","OBJECT_NAME":"STARLINK-2031","TIME_SYSTEM":"UTC","REF_FRAME":"TEME","MEAN_MOTION_DOT":"0.00025742","MEAN_MOTION":"15.06394055","PERIAPSIS":"546.462","RA_OF_ASC_NODE":"18.3032","PERIOD":"95.593","EPHEMERIS_TYPE":"0","OBJECT_TYPE":"PAYLOAD","TLE_LINE1":"1 47648U 21012AE  23049.40931704  .00025742  00000-0  17410-2 0  9996","ELEMENT_SET_NO":"999","ECCENTRICITY":"0.00011110","EPOCH":"2023-02-18T09:49:24.992256","DECAY_DATE":null,"BSTAR":"0.00174100000000","GP_ID":"225922607","MEAN_ANOMALY":"259.5407","REV_AT_EPOCH":"11217","CENTER_NAME":"EARTH","CLASSIFICATION_TYPE":"U","MEAN_ELEMENT_THEORY":"SGP4","SITE":"AFETR","COUNTRY_CODE":"US","SEMIMAJOR_AXIS":"6925.367","OBJECT_ID":"2021-012AE","NORAD_CAT_ID":"47648","TLE_LINE2":"2 47648  53.0541  18.3032 0001111 100.5707 259.5407 15.06394055112172","LAUNCH_DATE":"2021-02-16"}];
